[{"OBJECT_NAME":"COSMOS 2251 DEB","OBJECT_ID":"1993-036YQ","EPOCH":"2026-03-29T03:33:49.800384","MEAN_MOTION":14.12215539,"ECCENTRICITY":0.0161888,"INCLINATION":73.8691,"RA_OF_ASC_NODE":146.262,"ARG_OF_PERICENTER":51.4834,"MEAN_ANOMALY":339.8989,"EPHEMERIS_TYPE":0,"CLASSIFICATION_TYPE":"U","NORAD_CAT_ID":34722,"ELEMENT_SET_NO":999,"REV_AT_EPOCH":87747,"BSTAR":0.00040569,"MEAN_MOTION_DOT":8.19e-6,"MEAN_MOTION_DDOT":0},{"OBJECT_NAME":"COSMOS 2251 DEB","OBJECT_ID":"1993-036YU","EPOCH":"2026-03-29T03:49:51.415104","MEAN_MOTION":14.59996174,"ECCENTRICITY":0.0045197,"INCLINATION":74.0269,"RA_OF_ASC_NODE":143.234,"ARG_OF_PERICENTER":266.0526,"MEAN_ANOMALY":93.5472,"EPHEMERIS_TYPE":0,"CLASSIFICATION_TYPE":"U","NORAD_CAT_ID":34726,"ELEMENT_SET_NO":999,"REV_AT_EPOCH":90055,"BSTAR":0.00035097,"MEAN_MOTION_DOT":1.677e-5,"MEAN_MOTION_DDOT":0},{"OBJECT_NAME":"COSMOS 2251 DEB","OBJECT_ID":"1993-036YW","EPOCH":"2026-03-28T16:24:09.695520","MEAN_MOTION":14.71859139,"ECCENTRICITY":0.00427111,"INCLINATION":74.017,"RA_OF_ASC_NODE":45.6658,"ARG_OF_PERICENTER":180.4881,"MEAN_ANOMALY":179.6257,"EPHEMERIS_TYPE":0,"CLASSIFICATION_TYPE":"U","NORAD_CAT_ID":34728,"ELEMENT_SET_NO":999,"REV_AT_EPOCH":90358,"BSTAR":0.00071762181,"MEAN_MOTION_DOT":4.524e-5,"MEAN_MOTION_DDOT":0},{"OBJECT_NAME":"COSMOS 2251 DEB","OBJECT_ID":"1993-036YX","EPOCH":"2026-03-29T05:29:59.119872","MEAN_MOTION":14.86348766,"ECCENTRICITY":0.0017952,"INCLINATION":74.0158,"RA_OF_ASC_NODE":146.893,"ARG_OF_PERICENTER":249.9966,"MEAN_ANOMALY":167.214,"EPHEMERIS_TYPE":0,"CLASSIFICATION_TYPE":"U","NORAD_CAT_ID":34729,"ELEMENT_SET_NO":999,"REV_AT_EPOCH":90038,"BSTAR":0.0021169,"MEAN_MOTION_DOT":0.00018732,"MEAN_MOTION_DDOT":0},{"OBJECT_NAME":"COSMOS 2251 DEB","OBJECT_ID":"1993-036ZA","EPOCH":"2026-03-28T17:43:48.385344","MEAN_MOTION":14.47417978,"ECCENTRICITY":0.00390036,"INCLINATION":74.0429,"RA_OF_ASC_NODE":255.0872,"ARG_OF_PERICENTER":17.2494,"MEAN_ANOMALY":2.828,"EPHEMERIS_TYPE":0,"CLASSIFICATION_TYPE":"U","NORAD_CAT_ID":34732,"ELEMENT_SET_NO":999,"REV_AT_EPOCH":89677,"BSTAR":0.00012053052,"MEAN_MOTION_DOT":4.19e-6,"MEAN_MOTION_DDOT":0},{"OBJECT_NAME":"COSMOS 2251 DEB","OBJECT_ID":"1993-036ZG","EPOCH":"2026-03-29T00:38:28.923360","MEAN_MOTION":14.46573826,"ECCENTRICITY":0.0045515,"INCLINATION":74.015,"RA_OF_ASC_NODE":304.5685,"ARG_OF_PERICENTER":65.3423,"MEAN_ANOMALY":57.5567,"EPHEMERIS_TYPE":0,"CLASSIFICATION_TYPE":"U","NORAD_CAT_ID":34738,"ELEMENT_SET_NO":999,"REV_AT_EPOCH":89395,"BSTAR":0.00027965,"MEAN_MOTION_DOT":9.94e-6,"MEAN_MOTION_DDOT":0},{"OBJECT_NAME":"COSMOS 2251 DEB","OBJECT_ID":"1993-036ZU","EPOCH":"2026-03-29T04:03:15.312672","MEAN_MOTION":14.62764475,"ECCENTRICITY":0.0038234,"INCLINATION":74.1099,"RA_OF_ASC_NODE":358.8849,"ARG_OF_PERICENTER":277.8462,"MEAN_ANOMALY":233.6219,"EPHEMERIS_TYPE":0,"CLASSIFICATION_TYPE":"U","NORAD_CAT_ID":34750,"ELEMENT_SET_NO":999,"REV_AT_EPOCH":89786,"BSTAR":0.0011246,"MEAN_MOTION_DOT":5.77e-5,"MEAN_MOTION_DDOT":0},{"OBJECT_NAME":"COSMOS 2251 DEB","OBJECT_ID":"1993-036ZW","EPOCH":"2026-03-29T02:34:59.789280","MEAN_MOTION":15.03301995,"ECCENTRICITY":0.0049628,"INCLINATION":74.0113,"RA_OF_ASC_NODE":143.5455,"ARG_OF_PERICENTER":246.7736,"MEAN_ANOMALY":112.8222,"EPHEMERIS_TYPE":0,"CLASSIFICATION_TYPE":"U","NORAD_CAT_ID":34752,"ELEMENT_SET_NO":999,"REV_AT_EPOCH":91446,"BSTAR":0.001024,"MEAN_MOTION_DOT":0.00014257,"MEAN_MOTION_DDOT":0},{"OBJECT_NAME":"COSMOS 2251 DEB","OBJECT_ID":"1993-036ZY","EPOCH":"2026-03-29T02:37:57.418176","MEAN_MOTION":14.40647709,"ECCENTRICITY":0.0028477,"INCLINATION":74.0323,"RA_OF_ASC_NODE":30.8109,"ARG_OF_PERICENTER":125.2109,"MEAN_ANOMALY":252.5436,"EPHEMERIS_TYPE":0,"CLASSIFICATION_TYPE":"U","NORAD_CAT_ID":34754,"ELEMENT_SET_NO":999,"REV_AT_EPOCH":89665,"BSTAR":0.00024021,"MEAN_MOTION_DOT":7.44e-6,"MEAN_MOTION_DDOT":0},{"OBJECT_NAME":"COSMOS 2251 DEB","OBJECT_ID":"1993-036ZZ","EPOCH":"2026-03-27T19:48:47.405952","MEAN_MOTION":13.50802447,"ECCENTRICITY":0.0403897,"INCLINATION":73.9222,"RA_OF_ASC_NODE":121.0983,"ARG_OF_PERICENTER":121.8535,"MEAN_ANOMALY":53.6447,"EPHEMERIS_TYPE":0,"CLASSIFICATION_TYPE":"U","NORAD_CAT_ID":34755,"ELEMENT_SET_NO":999,"REV_AT_EPOCH":83942,"BSTAR":0.00036074957,"MEAN_MOTION_DOT":3.68e-6,"MEAN_MOTION_DDOT":0},{"OBJECT_NAME":"COSMOS 2251 DEB","OBJECT_ID":"1993-036AAA","EPOCH":"2026-03-27T20:11:49.421472","MEAN_MOTION":13.6754428,"ECCENTRICITY":0.03446777,"INCLINATION":74.0013,"RA_OF_ASC_NODE":291.4706,"ARG_OF_PERICENTER":145.3979,"MEAN_ANOMALY":217.0104,"EPHEMERIS_TYPE":0,"CLASSIFICATION_TYPE":"U","NORAD_CAT_ID":34756,"ELEMENT_SET_NO":999,"REV_AT_EPOCH":84858,"BSTAR":0.0011904364,"MEAN_MOTION_DOT":1.496e-5,"MEAN_MOTION_DDOT":0},{"OBJECT_NAME":"COSMOS 2251 DEB","OBJECT_ID":"1993-036AAC","EPOCH":"2026-03-28T12:38:17.772576","MEAN_MOTION":13.58400208,"ECCENTRICITY":0.0387782,"INCLINATION":74.1047,"RA_OF_ASC_NODE":129.1752,"ARG_OF_PERICENTER":228.9044,"MEAN_ANOMALY":127.798,"EPHEMERIS_TYPE":0,"CLASSIFICATION_TYPE":"U","NORAD_CAT_ID":34758,"ELEMENT_SET_NO":999,"REV_AT_EPOCH":84346,"BSTAR":0.0010023934,"MEAN_MOTION_DOT":1.17e-5,"MEAN_MOTION_DDOT":0},{"OBJECT_NAME":"COSMOS 2251 DEB","OBJECT_ID":"1993-036AAE","EPOCH":"2026-03-29T01:10:06.136032","MEAN_MOTION":14.19858493,"ECCENTRICITY":0.0095228,"INCLINATION":74.0604,"RA_OF_ASC_NODE":112.6007,"ARG_OF_PERICENTER":141.3309,"MEAN_ANOMALY":245.9518,"EPHEMERIS_TYPE":0,"CLASSIFICATION_TYPE":"U","NORAD_CAT_ID":34760,"ELEMENT_SET_NO":999,"REV_AT_EPOCH":88197,"BSTAR":0.00043657,"MEAN_MOTION_DOT":9.45e-6,"MEAN_MOTION_DDOT":0},{"OBJECT_NAME":"COSMOS 2251 DEB","OBJECT_ID":"1993-036AAF","EPOCH":"2026-03-28T15:50:45.493728","MEAN_MOTION":14.38525808,"ECCENTRICITY":0.00370373,"INCLINATION":74.0286,"RA_OF_ASC_NODE":167.5195,"ARG_OF_PERICENTER":182.091,"MEAN_ANOMALY":178.0095,"EPHEMERIS_TYPE":0,"CLASSIFICATION_TYPE":"U","NORAD_CAT_ID":34761,"ELEMENT_SET_NO":999,"REV_AT_EPOCH":89172,"BSTAR":0.00051804112,"MEAN_MOTION_DOT":1.57e-5,"MEAN_MOTION_DDOT":0},{"OBJECT_NAME":"COSMOS 2251 DEB","OBJECT_ID":"1993-036AAM","EPOCH":"2026-03-29T02:07:30.181728","MEAN_MOTION":14.61337889,"ECCENTRICITY":0.0052712,"INCLINATION":74.0042,"RA_OF_ASC_NODE":120.7038,"ARG_OF_PERICENTER":262.7806,"MEAN_ANOMALY":96.7366,"EPHEMERIS_TYPE":0,"CLASSIFICATION_TYPE":"U","NORAD_CAT_ID":34784,"ELEMENT_SET_NO":999,"REV_AT_EPOCH":90088,"BSTAR":0.00040649,"MEAN_MOTION_DOT":2.017e-5,"MEAN_MOTION_DDOT":0},{"OBJECT_NAME":"COSMOS 2251 DEB","OBJECT_ID":"1993-036AAT","EPOCH":"2026-03-29T04:07:28.723008","MEAN_MOTION":14.25038795,"ECCENTRICITY":0.0097315,"INCLINATION":74.0537,"RA_OF_ASC_NODE":52.0074,"ARG_OF_PERICENTER":89.0194,"MEAN_ANOMALY":288.6099,"EPHEMERIS_TYPE":0,"CLASSIFICATION_TYPE":"U","NORAD_CAT_ID":34790,"ELEMENT_SET_NO":999,"REV_AT_EPOCH":88089,"BSTAR":0.00081032,"MEAN_MOTION_DOT":1.97e-5,"MEAN_MOTION_DDOT":0}]
