COSMOS 2251 DEB         
1 34722U 93036YQ  26088.14849306  .00000819  00000+0  40569-3 0  9992
2 34722  73.8691 146.2620 0161888  51.4834 339.8989 14.12215539877477
COSMOS 2251 DEB         
1 34726U 93036YU  26088.15962286  .00001677  00000+0  35097-3 0  9993
2 34726  74.0269 143.2340 0045197 266.0526  93.5472 14.59996174900556
COSMOS 2251 DEB         
1 34728U 93036YW  26087.68344555  .00004524  00000+0  71762-3 0  9998
2 34728  74.0170  45.6658 0042711 180.4881 179.6257 14.71859139903584
COSMOS 2251 DEB         
1 34729U 93036YX  26088.22915648  .00018732  00000+0  21169-2 0  9998
2 34729  74.0158 146.8930 0017952 249.9966 167.2140 14.86348766900386
COSMOS 2251 DEB         
1 34732U 93036ZA  26087.73875446  .00000419  00000+0  12053-3 0  9994
2 34732  74.0429 255.0872 0039003  17.2494   2.8280 14.47417978896777
COSMOS 2251 DEB         
1 34738U 93036ZG  26088.02672365  .00000994  00000+0  27965-3 0  9994
2 34738  74.0150 304.5685 0045515  65.3423  57.5567 14.46573826893953
COSMOS 2251 DEB         
1 34750U 93036ZU  26088.16892723  .00005770  00000+0  11246-2 0  9996
2 34750  74.1099 358.8849 0038234 277.8462 233.6219 14.62764475897862
COSMOS 2251 DEB         
1 34752U 93036ZW  26088.10763645  .00014257  00000+0  10240-2 0  9995
2 34752  74.0113 143.5455 0049628 246.7736 112.8222 15.03301995914468
COSMOS 2251 DEB         
1 34754U 93036ZY  26088.10969234  .00000744  00000+0  24021-3 0  9998
2 34754  74.0323  30.8109 0028477 125.2109 252.5436 14.40647709896656
COSMOS 2251 DEB         
1 34755U 93036ZZ  26086.82554868  .00000368  00000+0  36075-3 0  9993
2 34755  73.9222 121.0983 0403897 121.8535  53.6447 13.50802447839420
COSMOS 2251 DEB         
1 34756U 93036AAA 26086.84154423  .00001496  00000+0  11904-2 0  9995
2 34756  74.0013 291.4706 0344677 145.3979 217.0104 13.67544280848588
COSMOS 2251 DEB         
1 34758U 93036AAC 26087.52659459  .00001170  00000+0  10024-2 0  9993
2 34758  74.1047 129.1752 0387782 228.9044 127.7980 13.58400208843463
COSMOS 2251 DEB         
1 34760U 93036AAE 26088.04868213  .00000945  00000+0  43657-3 0  9992
2 34760  74.0604 112.6007 0095228 141.3309 245.9518 14.19858493881976
COSMOS 2251 DEB         
1 34761U 93036AAF 26087.66024877  .00001570  00000+0  51804-3 0  9998
2 34761  74.0286 167.5195 0037037 182.0910 178.0095 14.38525808891726
COSMOS 2251 DEB         
1 34784U 93036AAM 26088.08854377  .00002017  00000+0  40649-3 0  9998
2 34784  74.0042 120.7038 0052712 262.7806  96.7366 14.61337889900886
COSMOS 2251 DEB         
1 34790U 93036AAT 26088.17186022  .00001970  00000+0  81032-3 0  9998
2 34790  74.0537  52.0074 0097315  89.0194 288.6099 14.25038795880894
